[{"OBJECT_NAME":"STARLINK-34090","OBJECT_ID":"2025-099AA","EPOCH":"2026-03-09T06:51:12.828096","MEAN_MOTION":15.27579691,"ECCENTRICITY":0.00014427,"INCLINATION":43.0016,"RA_OF_ASC_NODE":175.1071,"ARG_OF_PERICENTER":278.2698,"MEAN_ANOMALY":81.799,"EPHEMERIS_TYPE":0,"CLASSIFICATION_TYPE":"U","NORAD_CAT_ID":63976,"ELEMENT_SET_NO":999,"REV_AT_EPOCH":4722,"BSTAR":0.00091973223,"MEAN_MOTION_DOT":0.00025133,"MEAN_MOTION_DDOT":0},{"OBJECT_NAME":"PEGASUS R\/B","OBJECT_ID":"2007-015B","EPOCH":"2026-03-09T10:58:33.801024","MEAN_MOTION":15.26741121,"ECCENTRICITY":0.00105976,"INCLINATION":97.9168,"RA_OF_ASC_NODE":31.3919,"ARG_OF_PERICENTER":317.6341,"MEAN_ANOMALY":42.4077,"EPHEMERIS_TYPE":0,"CLASSIFICATION_TYPE":"U","NORAD_CAT_ID":31305,"ELEMENT_SET_NO":999,"REV_AT_EPOCH":3383,"BSTAR":0.00044093522,"MEAN_MOTION_DOT":0.00011537,"MEAN_MOTION_DDOT":0}]
